[{"OBJECT_NAME":"STARLINK-5256","OBJECT_ID":"2022-141U","EPOCH":"2026-03-09T06:24:36.907776","MEAN_MOTION":15.08869984,"ECCENTRICITY":0.00016823,"INCLINATION":53.2185,"RA_OF_ASC_NODE":6.0286,"ARG_OF_PERICENTER":85.0951,"MEAN_ANOMALY":275.0233,"EPHEMERIS_TYPE":0,"CLASSIFICATION_TYPE":"U","NORAD_CAT_ID":54175,"ELEMENT_SET_NO":999,"REV_AT_EPOCH":18579,"BSTAR":0.00051536115,"MEAN_MOTION_DOT":7.93e-5,"MEAN_MOTION_DDOT":0},{"OBJECT_NAME":"PEGASUS DEB","OBJECT_ID":"1994-029ED","EPOCH":"2026-03-09T22:32:35.369664","MEAN_MOTION":15.15581903,"ECCENTRICITY":0.00435925,"INCLINATION":81.9086,"RA_OF_ASC_NODE":82.9658,"ARG_OF_PERICENTER":180.8011,"MEAN_ANOMALY":179.3158,"EPHEMERIS_TYPE":0,"CLASSIFICATION_TYPE":"U","NORAD_CAT_ID":24082,"ELEMENT_SET_NO":999,"REV_AT_EPOCH":60530,"BSTAR":0.00058600752,"MEAN_MOTION_DOT":0.00011426,"MEAN_MOTION_DDOT":0}]
